{
    "links": {
        "self": "http://www.neowsapp.com/rest/v1/neo/3753021?api_key=iIulBulltgU6a56xZRHN4H3l9WmuAYTsLGpBGhQ2"
    },
    "id": "3753021",
    "neo_reference_id": "3753021",
    "name": "(2016 JF17)",
    "designation": "2016 JF17",
    "nasa_jpl_url": "http://ssd.jpl.nasa.gov/sbdb.cgi?sstr=3753021",
    "absolute_magnitude_h": 25.4,
    "estimated_diameter": {
        "kilometers": {
            "estimated_diameter_min": 0.022108281,
            "estimated_diameter_max": 0.0494356193
        },
        "meters": {
            "estimated_diameter_min": 22.1082810359,
            "estimated_diameter_max": 49.435619262
        },
        "miles": {
            "estimated_diameter_min": 0.0137374447,
            "estimated_diameter_max": 0.0307178602
        },
        "feet": {
            "estimated_diameter_min": 72.5337327539,
            "estimated_diameter_max": 162.1903570994
        }
    },
    "is_potentially_hazardous_asteroid": false,
    "close_approach_data": [
        {
            "close_approach_date": "2016-03-22",
            "close_approach_date_full": "2016-Mar-22 05:01",
            "epoch_date_close_approach": 1458622860000,
            "relative_velocity": {
                "kilometers_per_second": "2.138495176",
                "kilometers_per_hour": "7698.5826334518",
                "miles_per_hour": "4783.5998591023"
            },
            "miss_distance": {
                "astronomical": "0.0925282089",
                "lunar": "35.9934732621",
                "kilometers": "13842022.966355043",
                "miles": "8601034.2360358734"
            },
            "orbiting_body": "Earth"
        },
        {
            "close_approach_date": "2019-01-25",
            "close_approach_date_full": "2019-Jan-25 06:17",
            "epoch_date_close_approach": 1548397020000,
            "relative_velocity": {
                "kilometers_per_second": "6.8639957324",
                "kilometers_per_hour": "24710.3846367569",
                "miles_per_hour": "15354.0720538782"
            },
            "miss_distance": {
                "astronomical": "0.0638965912",
                "lunar": "24.8557739768",
                "kilometers": "9558793.943780744",
                "miles": "5939559.1356485072"
            },
            "orbiting_body": "Mars"
        }
    ],
    "orbital_data": {
        "orbit_id": "4",
        "orbit_determination_date": "2017-04-06 08:26:04",
        "first_observation_date": "2016-05-01",
        "last_observation_date": "2016-05-08",
        "data_arc_in_days": 7,
        "observations_used": 13,
        "orbit_uncertainty": "8",
        "minimum_orbit_intersection": ".0878762",
        "jupiter_tisserand_invariant": "4.724",
        "epoch_osculation": "2457511.5",
        "eccentricity": ".2291485875767219",
        "semi_major_axis": "1.400730910664191",
        "inclination": "2.26716031657699",
        "ascending_node_longitude": "213.8792801173674",
        "orbital_period": "605.522793383154",
        "perihelion_distance": "1.079755400910436",
        "perihelion_argument": "320.1200149230895",
        "aphelion_distance": "1.721706420417945",
        "perihelion_time": "2457460.166238615787",
        "mean_anomaly": "30.51933684455554",
        "mean_motion": ".5945275783734278",
        "equinox": "J2000",
        "orbit_class": {
            "orbit_class_type": "AMO",
            "orbit_class_description": "Near-Earth asteroid orbits similar to that of 1221 Amor",
            "orbit_class_range": "1.017 AU < q (perihelion) < 1.3 AU"
        }
    },
    "is_sentry_object": false
}